#dP2024 11 28  0  0  0.00000000      97 __u+U IGS20 FIT  IAC
## 2342 345600.00000000   900.00000000 60642 0.0000000000000
+  118   C06C07C08C09C10C11C12C13C14C16C19C20C21C22C23C24C25
+        C26C27C28C29C30C32C33C34C35C36C37C38C39C40C41C42C43
+        C44C45E02E03E04E05E06E07E08E09E10E11E12E13E14E15E18
+        E19E21E24E25E26E27E29E30E31E33E34E36G02G03G04G05G06
+        G07G08G09G10G11G12G13G14G15G16G17G18G19G20G21G22G23
+        G24G25G26G27G28G29G30G31G32J02J03J04R01R02R03R04R05
+        R07R08R09R11R12R14R15R16R17R18R19R20R21R22R24R26  0
++         7  7  7  7  7  6  6  7  6  7  6  5  5  6  5  5  5
++         5  6  6  5  5  5  5  5  6  5  6  6  6  6  6  5  6
++         6  5  4  4  4  4  4  4  4  4  4  4  4  4  4  4  4
++         4  4  4  4  4  4  4  4  4  4  4  4  3  7  4  4  4
++         3  4  4  7  4  3  3  3  3  4  4  3  4  4  4  3  3
++         3  4  4  4  4  4  3  4  4 10 11 11  7  7  7  6  7
++         6  6  6  6  7  6  6  6  6  6  7  7  6  7  7  7  0
%c M  cc GPS ccc cccc cccc cccc cccc ccccc ccccc ccccc ccccc
%c cc cc ccc ccc cccc cccc cccc cccc ccccc ccccc ccccc ccccc
%f  1.2500000  1.025000000  0.00000000000  0.000000000000000
%f  0.0000000  0.000000000  0.00000000000  0.000000000000000
%i    0    0    0    0      0      0      0      0         0
%i    0    0    0    0      0      0      0      0         0
/* INFORMATION & ANALYSIS CENTER (IAC)            FINAL DATA
/* S/V CLOCKS ARE ALIGNED TO GNSS TIME                      
/* G:C1WC2W R:C1PC2P E:C1XC5X C:C2IC6I J:C1CC2S             
/* PCV:IGS20_2317 OL/AL:FES2004  NONE     YN ORB:CoN CLK:CoN
*  2024 11 28  0 15  0.00000000
PC06  -9346.339401  40857.590936   5947.918506    484.545862
PC07  -4489.569411  28293.325134 -30785.505546   -168.407648
PC08 -19392.734819  25546.904917  27230.676789   -845.642899
PC09  -6182.420167  42032.048732  -1348.086083   -696.661752
PC10   3113.867676  30095.765028 -28823.986871   -305.873948
PC11   1097.107007  26023.583039  -9929.758410    263.213922
PC12 -11466.321576  12636.471508 -22033.604019   -242.954348
PC13 -12363.472102  26568.582560  30372.654509     84.750334
PC14  -1541.901721  15544.825549  23126.920149   -478.320327
PC16 -11564.738980  39670.529334   9636.400046     68.593554
PC19  -9423.535395 -15976.907700 -20837.827380   -971.867268
PC20  10293.482415 -13233.427223 -22300.773404   -900.791669
PC21 -25885.543725   2052.287237  10255.108531   -912.081319
PC22 -25081.776728  -9809.108102  -7356.810883    191.207836
PC23  14725.360120   7727.413368 -22415.267470   -899.211255
PC24 -16443.871036  22358.579077  -2776.835621    751.166725
PC25   -779.499704  21401.208218 -17896.709131    572.977113
PC26 -21669.482592  10932.538651  13716.925673   -383.400297
PC27  15963.391284  -2841.109715  22697.517542    402.212720
PC28  17280.524379  14575.400484  16370.773848    313.460346
PC29  -8444.227958 -26475.708435   2547.018626    368.022418
PC30   6103.646066 -20098.067092  18358.722140     38.613039
PC32  25907.720718  -2175.193815 -10119.203752   -818.904389
PC33   9373.765506  15950.443530  20885.185127   -948.967628
PC34  -4823.150028  21408.679895 -17256.778372    573.683910
PC35 -17773.131049 -14555.736835 -15829.562297    196.542296
PC36    916.267408 -21221.459068  18120.828321    228.628922
PC37  21922.156044 -10213.907115 -13949.584501   -894.283264
PC38 -23897.038790  27453.385536  21213.833208    193.824947
PC39 -11711.462861  38105.099034  14157.321572    -10.437459
PC40  -8421.973652  22784.367541 -34408.991967   -105.084480
PC41  24588.986604  10255.768236   8331.089732   -887.434266
PC42 -12342.119084  12548.327628  21698.884952   -525.246391
PC43   7756.230777  26589.724573  -3493.594746     93.566208
PC44 -16030.922783   3402.318576 -22596.233530    665.137614
PC45 -14184.356065  -8253.720993  22557.572112   -176.106227
PE02  26646.062520 -11167.971834   6482.143343    178.098326
PE03  16896.203790  -6144.846281 -23524.011699   -156.302368
PE04    505.211633  21149.955419  20702.103889    -93.130429
PE05  23963.119536  12140.556890 -12436.988762   4805.525934
PE06   9568.629561  24177.772590  14133.556848    -52.339182
PE07 -16857.393168 -23513.539607  -6273.065139   -155.195695
PE08    138.190028 -20704.182524 -21164.466363   -374.963549
PE09  16822.390735  23504.459420   6350.858312   -679.565337
PE10  -1506.775747  27938.208612   9652.342786   -672.775817
PE11   5775.410987  22591.392725  18236.720786    554.090343
PE12  -7683.066872  28582.083855    799.006725  -1315.296648
PE13  -5344.810143 -22980.725483 -17860.786026    -27.291712
PE14  -9348.525702  16151.409559 -21169.351713    417.490856
PE15   8140.215041 -28457.554591    -29.294823   -141.698404
PE18  -8213.536358 -24974.234402  13692.802117    821.847799
PE19 -18002.102397   4248.986314  23108.364355   1000.743076
PE21 -27168.847889  -1534.749356  11637.323157   -630.868080
PE24  11652.235802  13903.881545 -23412.821399  -1124.054593
PE25  26990.284714   1853.816000 -12022.296008     11.689039
PE26 -15743.912095  -3691.797876 -24778.709409   -199.106830
PE27 -11692.839955 -13802.931194  23425.113375   -515.380505
PE29 -23975.748621 -11819.035168  12687.867904    -49.177028
PE30  10403.866296 -17784.613514  21245.606181   -970.984949
PE31 -10452.312789  17762.473072 -21240.141932    -44.547400
PE33 -16692.813257  16738.511977 -17796.638712     16.246546
PE34  16590.528276 -17166.194549  17512.745519   -148.473515
PE36  15435.210487   4227.258040  24911.351015   -317.201117
PG02  13780.679271 -14976.680171  17337.434392   -304.737823
PG03  21839.462684 -12776.552169  -8052.292702    611.168417
PG04  12330.290830  -9003.170994 -21729.157453    486.772361
PG05 -25159.243954   4184.172276  -7708.501800   -194.329728
PG06  -6747.440034 -19609.019197 -16455.866325     -1.700872
PG07   6450.771936 -25400.987388  -1789.284419    -17.855212
PG08  20472.515742   1044.911577  17003.910590    424.873905
PG09   3125.328572 -16356.715765 -20768.195112    463.076324
PG10   8217.867633  12660.339346  22112.385121   -212.525122
PG11 -13755.243140  -6725.376224 -21667.423077   -751.595603
PG12 -24372.162537   9605.153536  -4510.664791   -554.884600
PG13 -20618.653742 -10819.056607  12761.673633    687.799964
PG14  -3951.739940 -15078.496106  21546.142670    548.877292
PG15 -20131.813432   1835.195921  16780.493613    232.955431
PG16  24191.863925   2451.732905 -11556.055777   -117.297331
PG17 -10628.310363 -21633.994512  11343.440410    541.723556
PG18  -5688.604182  25816.769066     78.188444   -660.593653
PG19 -17637.015957 -20144.941617    947.388216    567.746861
PG20 -19831.239767  -2974.911627 -17262.517355    368.364219
PG21  15201.134066  -7767.236847  20438.522833     96.386334
PG22 -11755.400779 -12155.106089  20802.338990    -82.590000
PG23  -7216.530319  16485.370898  19490.760200    372.227972
PG24 -14248.576685  13341.901500  17366.558411   -477.552499
PG25 -14302.162066  16626.691468 -15145.227526    498.652903
PG26  16765.766298   8292.799956 -19169.142340     11.102620
PG27  22495.744311  11368.460449   8738.733362    -34.555304
PG28   6750.841429  21137.310913 -14611.861139   -492.110340
PG29  -4866.666232  15625.719544 -20936.267610   -560.413745
PG30  -1732.048742 -24867.424571   8922.446621   -272.962245
PG31  12421.094889  11463.696484 -20645.376315   -220.999340
PG32  14704.584567  20611.027659   8590.231524   -567.511904
PJ02 -33924.670148  16481.923076 -14158.394334      0.252790
PJ03 -21439.809635  31470.243742 -13507.111096     -7.698380
PJ04 -27875.045662  25832.425118  24105.940109     21.540877
PR01   8120.850672  13033.193271  20363.932404    105.853364
PR02  21339.709850  12051.885368   7252.722846    -39.380805
PR03  23086.529270   3726.612803 -10225.619301    112.187521
PR04  12112.376890  -5921.805664 -21632.732355    265.956557
PR05  -5163.502892 -12710.436635 -21489.289227    141.362445
PR07 -22865.351580  -3412.277595  10750.825092     95.838331
PR08 -11786.745395   6346.133011  21760.622087     -6.224890
PR09 -10486.966527  -5701.552516  22566.855422    223.015018
PR11 -19219.035870  16736.793615  -1278.913793      5.985794
PR12  -6111.888833  16473.170291 -18466.459601     47.734864
PR14  19932.316577  -7946.127227 -13770.658215     27.287774
PR15  18596.163919 -17179.201363   3108.702420     73.671099
PR16   6259.271800 -16454.250593  18448.513930     31.126964
PR17  10771.500488     79.515147  23136.053027    143.690593
PR18   6154.927460 -16498.872774  18457.552421    174.006804
PR19    120.683757 -24754.692393   6179.035515   -299.994802
PR20  -8595.366423 -19024.756155 -14615.650593   -122.491015
PR21 -10810.585657  -1437.531875 -23052.684177   -154.951574
PR22  -6290.068287  17489.250761 -17443.048551    -23.757953
PR24   9964.723946  18148.950941  14910.204408    -81.867170
PR26 -13431.684047   5407.252132  21021.746577   -133.237366
EOF
